SL-14 R/B               
1 21423U 91042B   26057.88604362  .00000483  00000+0  58177-4 0  9991
2 21423  82.4904 230.3143 0015558 277.3623  82.5823 14.81816533851474
ERS-1                   
1 21574U 91050A   26057.50602218  .00000313  00000+0  11497-3 0  9999
2 21574  98.7889  75.4594 0031091 234.2714 125.5579 14.39439113814129
ARIANE 40 R/B           
1 21610U 91050F   26057.16749947  .00000263  00000+0  91367-4 0  9992
2 21610  98.2038 109.8351 0004363 106.1141 254.0530 14.42883826817336
INTERCOSMOS 25          
1 21819U 91086A   26057.67760346  .00001518  00000+0  29140-3 0  9997
2 21819  82.6070 316.6632 1487091 140.6557 231.2688 12.11963375495355
SL-8 R/B                
1 21876U 92008B   26057.58958998  .00000011  00000+0 -40480-5 0  9997
2 21876  82.9233 276.0374 0034978 163.6890 225.1875 13.75969910707897
SL-8 R/B                
1 21938U 92020B   26057.41977517  .00000069  00000+0  56090-4 0  9995
2 21938  82.9344 162.1265 0028157 331.4719 100.2403 13.75548007699586
USA 81                  
1 21949U 92023A   26057.62126902  .00000170  00000+0  55740-4 0  9991
2 21949  85.0106 137.8250 0002724  87.1141 273.0363 14.32363681 93205
COSMOS 2219             
1 22219U 92076A   26057.41510685  .00000367  00000+0  21719-3 0  9998
2 22219  71.0602  41.6362 0019509 222.0626 137.9000 14.14084969716785
SL-16 R/B               
1 22220U 92076B   26057.91687243  .00000291  00000+0  16908-3 0  9990
2 22220  70.9990 211.0647 0010843 116.1618  57.4316 14.16857771720300
COSMOS 2221             
1 22236U 92080A   26057.93674557  .00001745  00000+0  15252-3 0  9994
2 22236  82.5028 289.3821 0013124 225.2775 134.7380 14.96153136779183
SL-16 R/B               
1 22285U 92093B   26057.85630674  .00000055  00000+0  52492-4 0  9996
2 22285  71.0230  27.0063 0006069 305.3101  54.7454 14.15449594711628
COSMOS 2228             
1 22286U 92094A   26057.89335112  .00001924  00000+0  16402-3 0  9997
2 22286  82.5146 247.6495 0017522 342.8338  17.2290 14.97128901774442
